H1 CPF  1  DLR 2021 06 26 10  6772 technosat            
H2  1704205 6203    42829 2021 06 26 00 00 00 2021 07 03 00 00 00    60 1 1  0 0 0
H9
10 0 59398      0.000000  0       1099551.107      -2517241.191      -6426588.880
99
